{
    "links": {
        "self": "http://www.neowsapp.com/rest/v1/neo/3646733?api_key=iIulBulltgU6a56xZRHN4H3l9WmuAYTsLGpBGhQ2"
    },
    "id": "3646733",
    "neo_reference_id": "3646733",
    "name": "(2013 QB11)",
    "designation": "2013 QB11",
    "nasa_jpl_url": "http://ssd.jpl.nasa.gov/sbdb.cgi?sstr=3646733",
    "absolute_magnitude_h": 24.5,
    "estimated_diameter": {
        "kilometers": {
            "estimated_diameter_min": 0.0334622374,
            "estimated_diameter_max": 0.0748238376
        },
        "meters": {
            "estimated_diameter_min": 33.4622374455,
            "estimated_diameter_max": 74.8238376074
        },
        "miles": {
            "estimated_diameter_min": 0.0207924639,
            "estimated_diameter_max": 0.0464933628
        },
        "feet": {
            "estimated_diameter_min": 109.7842471007,
            "estimated_diameter_max": 245.4850393757
        }
    },
    "is_potentially_hazardous_asteroid": false,
    "close_approach_data": [
        {
            "close_approach_date": "2013-08-23",
            "close_approach_date_full": "2013-Aug-23 03:34",
            "epoch_date_close_approach": 1377228840000,
            "relative_velocity": {
                "kilometers_per_second": "8.3343942879",
                "kilometers_per_hour": "30003.8194365677",
                "miles_per_hour": "18643.2065826829"
            },
            "miss_distance": {
                "astronomical": "0.0616794705",
                "lunar": "23.9933140245",
                "kilometers": "9227117.409527835",
                "miles": "5733464.893980723"
            },
            "orbiting_body": "Earth"
        },
        {
            "close_approach_date": "2122-10-02",
            "close_approach_date_full": "2122-Oct-02 17:50",
            "epoch_date_close_approach": 4820406600000,
            "relative_velocity": {
                "kilometers_per_second": "19.985967625",
                "kilometers_per_hour": "71949.4834499003",
                "miles_per_hour": "44706.6109803005"
            },
            "miss_distance": {
                "astronomical": "0.4666765542",
                "lunar": "181.5371795838",
                "kilometers": "69813818.487259554",
                "miles": "43380295.2369636852"
            },
            "orbiting_body": "Earth"
        }
    ],
    "orbital_data": {
        "orbit_id": "7",
        "orbit_determination_date": "2017-04-06 08:45:02",
        "first_observation_date": "2013-08-28",
        "last_observation_date": "2013-09-05",
        "data_arc_in_days": 8,
        "observations_used": 52,
        "orbit_uncertainty": "8",
        "minimum_orbit_intersection": ".0606451",
        "jupiter_tisserand_invariant": "3.445",
        "epoch_osculation": "2456533.5",
        "eccentricity": ".5205738442417349",
        "semi_major_axis": "2.219518949966746",
        "inclination": "9.164270743284796",
        "ascending_node_longitude": "155.9122302790811",
        "orbital_period": "1207.776882888298",
        "perihelion_distance": "1.064095437815178",
        "perihelion_argument": "163.9329706335404",
        "aphelion_distance": "3.374942462118313",
        "perihelion_time": "2456519.004468547406",
        "mean_anomaly": "4.320658390525319",
        "mean_motion": ".2980682981272915",
        "equinox": "J2000",
        "orbit_class": {
            "orbit_class_type": "AMO",
            "orbit_class_description": "Near-Earth asteroid orbits similar to that of 1221 Amor",
            "orbit_class_range": "1.017 AU < q (perihelion) < 1.3 AU"
        }
    },
    "is_sentry_object": false
}